ONEWEB-0275             
1 48993U 21060AC  25001.32670077  .00000060  00000+0  12285-3 0  9998
2 48993  87.9098 334.7459 0001641  83.5604 276.5714 13.16596460169570
ONEWEB-0276             
1 48994U 21060AD  25001.66392594 -.00000018  00000+0 -81850-4 0  9991
2 48994  87.9099 334.6753 0001565  90.0063 270.1248 13.16591789169633
ONEWEB-0277             
1 48995U 21060AE  25001.67660257  .00000086  00000+0  19110-3 0  9999
2 48995  87.9098 334.7102 0001262  85.5507 274.5769 13.16596457169620
ONEWEB-0278             
1 48996U 21060AF  25001.66710625  .00000094  00000+0  21324-3 0  9993
2 48996  87.9098 334.6715 0001909  89.7694 270.3655 13.16596495169755
ONEWEB-0279             
1 48997U 21060AG  25001.67502242  .00000064  00000+0  13335-3 0  9999
2 48997  87.9099 334.6667 0001359  80.0972 280.0312 13.16595671169680
ONEWEB-0280             
1 48998U 21060AH  25001.61407598  .00000076  00000+0  16588-3 0  9998
2 48998  87.9100 334.6830 0001567  94.4046 265.7264 13.16596323169612
ONEWEB-0281             
1 48999U 21060AJ  25001.31561844  .00000059  00000+0  11975-3 0  9997
2 48999  87.9098 334.7419 0001806  78.0761 282.0572 13.16592819169644
ONEWEB-0282             
1 49000U 21060AK  25001.64969227  .00000074  00000+0  16095-3 0  9999
2 49000  87.9094 334.6920 0001516  89.7943 270.3361 13.16596345169665
